NORAD_CAT_ID,OBJECT_NAME,OBJECT_TYPE,EPOCH,MEAN_MOTION,ECCENTRICITY,INCLINATION,RA_OF_ASC_NODE,ARG_OF_PERICENTER,MEAN_ANOMALY,BSTAR,MEAN_MOTION_DOT,MEAN_MOTION_DDOT,TLE_LINE0,TLE_LINE1,TLE_LINE2,SEMIMAJOR_AXIS,PERIOD,APOGEE,PERIGEE,DECAYED
53600.0,STARLINK-4677,PAYLOAD,2024-03-09 21:18:12,15.08841755,0.000109,53.2142,280.7335,90.5245,269.5872,1.2157e-05,-9.4e-07,0.0,0 STARLINK-4677,1 53600U 22104N   24069.88764177 -.00000094  00000-0  12157-4 0  9996,2 53600  53.2142 280.7335 0001090  90.5245 269.5872 15.08841755 85439,6917.875,95.437,540.494,538.986,0.0
53600.0,STARLINK-4677,PAYLOAD,2024-03-10 00:28:58,15.08843887,0.0001234,53.2133,280.1387,93.3622,266.7512,6.5823e-05,7.6e-06,0.0,0 STARLINK-4677,1 53600U 22104N   24070.02012105  .00000760  00000-0  65823-4 0  9998,2 53600  53.2133 280.1387 0001234  93.3622 266.7512 15.08843887 85179,6917.869,95.437,540.587,538.88,0.0
53600.0,STARLINK-4677,PAYLOAD,2024-03-10 06:50:31,15.08839473,0.0001128,53.2132,278.9477,90.0646,270.0475,1.7402e-05,-1.1e-07,0.0,0 STARLINK-4677,1 53600U 22104N   24070.28508285 -.00000011  00000-0  17402-4 0  9995,2 53600  53.2132 278.9477 0001128  90.0646 270.0475 15.08839473 85492,6917.882,95.438,540.527,538.967,0.0
53600.0,STARLINK-4677,PAYLOAD,2024-03-10 19:33:36,15.08832941,0.0001125,53.2139,276.5685,84.0965,276.0155,0.00014567,2.031e-05,0.0,0 STARLINK-4677,1 53600U 22104N   24070.81500823  .00002031  00000-0  14567-3 0  9995,2 53600  53.2139 276.5685 0001125  84.0965 276.0155 15.08832941 85290,6917.902,95.438,540.545,538.989,0.0
53600.0,STARLINK-4677,PAYLOAD,2024-03-11 06:41:18,15.08842145,9.97e-05,53.2137,274.4876,85.5427,274.5679,0.00011219,1.498e-05,0.0,0 STARLINK-4677,1 53600U 22104N   24071.27868317  .00001498  00000-0  11219-3 0  9998,2 53600  53.2137 274.4876 0000997  85.5427 274.5679 15.08842145 85361,6917.874,95.437,540.429,539.049,0.0
53600.0,STARLINK-4677,PAYLOAD,2024-03-12 12:53:38,15.08839128,0.0001262,53.2158,268.8367,84.9614,275.1522,0.00010993,1.462e-05,0.0,0 STARLINK-4677,1 53600U 22104N   24072.53724799  .00001462  00000-0  10993-3 0  9992,2 53600  53.2158 268.8367 0001262  84.9614 275.1522 15.08839128 85555,6917.883,95.438,540.621,538.875,0.0
53600.0,STARLINK-4677,PAYLOAD,2024-03-13 12:44:25,15.08842626,0.0001289,53.2143,264.3741,105.693,254.4204,9.7476e-05,1.264e-05,0.0,0 STARLINK-4677,1 53600U 22104N   24073.53084515  .00001264  00000-0  97476-4 0  9990,2 53600  53.2143 264.3741 0001289 105.6930 254.4204 15.08842626 85988,6917.872,95.437,540.629,538.846,0.0
53600.0,STARLINK-4677,PAYLOAD,2024-03-13 19:05:57,15.08842291,0.0001676,53.2128,263.1852,95.5806,264.5378,0.00010707,1.416e-05,0.0,0 STARLINK-4677,1 53600U 22104N   24073.79580695  .00001416  00000-0  10707-3 0  9998,2 53600  53.2128 263.1852 0001676  95.5806 264.5378 15.08842291 85746,6917.873,95.437,540.898,538.579,0.0
53600.0,STARLINK-4677,PAYLOAD,2024-03-13 22:16:43,15.08841935,0.000161,53.214,262.5913,98.677,261.4404,9.2428e-05,1.183e-05,0.0,0 STARLINK-4677,1 53600U 22104N   24073.92828703  .00001183  00000-0  92428-4 0  9990,2 53600  53.2140 262.5913 0001610  98.6770 261.4404 15.08841935 86047,6917.874,95.437,540.853,538.626,0.0
53600.0,STARLINK-4677,PAYLOAD,2024-03-14 18:56:44,15.08841082,0.0001591,53.2156,258.7263,96.4558,263.6615,7.9936e-05,9.84e-06,0.0,0 STARLINK-4677,1 53600U 22104N   24074.78940776  .00000984  00000-0  79936-4 0  9997,2 53600  53.2156 258.7263 0001591  96.4558 263.6615 15.08841082 86172,6917.877,95.437,540.843,538.641,0.0
53600.0,STARLINK-4677,PAYLOAD,2024-03-15 12:25:59,15.08840243,0.0001568,53.2158,255.4545,98.3274,261.7896,8.1061e-05,1.002e-05,0.0,0 STARLINK-4677,1 53600U 22104N   24075.51804833  .00001002  00000-0  81061-4 0  9996,2 53600  53.2158 255.4545 0001568  98.3274 261.7896 15.08840243 86001,6917.88,95.438,540.829,538.66,0.0
53600.0,STARLINK-4677,PAYLOAD,2024-03-16 12:16:46,15.08839542,0.0001492,53.2155,250.9942,94.653,265.4633,2.8225e-05,1.61e-06,0.0,0 STARLINK-4677,1 53600U 22104N   24076.51164969  .00000161  00000-0  28225-4 0  9994,2 53600  53.2155 250.9942 0001492  94.6530 265.4633 15.08839542 86436,6917.882,95.438,540.779,538.715,0.0
53600.0,STARLINK-4677,PAYLOAD,2024-03-16 17:02:56,15.08835414,0.000138,53.2164,250.1036,102.4672,257.6475,6.0861e-05,6.81e-06,0.0,0 STARLINK-4677,1 53600U 22104N   24076.71037242  .00000681  00000-0  60861-4 0  9998,2 53600  53.2164 250.1036 0001380 102.4672 257.6475 15.08835414 86186,6917.894,95.438,540.714,538.805,0.0
53600.0,STARLINK-4677,PAYLOAD,2024-03-17 10:32:10,15.08836009,0.0001499,53.2168,246.8322,109.3553,250.7601,7.1937e-05,8.57e-06,0.0,0 STARLINK-4677,1 53600U 22104N   24077.43901353  .00000857  00000-0  71937-4 0  9992,2 53600  53.2168 246.8322 0001499 109.3553 250.7601 15.08836009 86574,6917.893,95.438,540.795,538.721,0.0
53600.0,STARLINK-4677,PAYLOAD,2024-03-17 18:29:06,15.08842114,0.0001275,53.2162,245.3464,88.4892,271.6247,0.00010907,1.448e-05,0.0,0 STARLINK-4677,1 53600U 22104N   24077.77020954  .00001448  00000-0  10907-3 0  9994,2 53600  53.2162 245.3464 0001275  88.4892 271.6247 15.08842114 86341,6917.874,95.437,540.621,538.857,0.0
53600.0,STARLINK-4677,PAYLOAD,2024-03-20 16:26:04,15.08845633,0.0001419,53.2168,232.2598,76.7017,283.4133,-8.3035e-06,-4.2e-06,0.0,0 STARLINK-4677,1 53600U 22104N   24080.68477741 -.00000420  00000-0 -83035-5 0  9993,2 53600  53.2168 232.2598 0001419  76.7017 283.4133 15.08845633 86781,6917.863,95.437,540.71,538.747,0.0
53600.0,STARLINK-4677,PAYLOAD,2024-03-21 14:41:28,15.0884596,0.0001404,53.2158,228.1021,89.9218,270.1935,0.00010324,1.356e-05,0.0,0 STARLINK-4677,1 53600U 22104N   24081.61213341  .00001356  00000-0  10324-3 0  9997,2 53600  53.2158 228.1021 0001404  89.9218 270.1935 15.08845960 87202,6917.862,95.437,540.698,538.756,0.0
53600.0,STARLINK-4677,PAYLOAD,2024-03-21 16:16:51,15.0885099,0.0001332,53.2153,227.8022,98.9971,261.1172,0.00017381,2.48e-05,0.0,0 STARLINK-4677,1 53600U 22104N   24081.67836999  .00002480  00000-0  17381-3 0  9992,2 53600  53.2153 227.8022 0001332  98.9971 261.1172 15.08850990 87213,6917.847,95.437,540.633,538.79,0.0
53600.0,STARLINK-4677,PAYLOAD,2024-03-22 14:32:14,15.08857985,0.0001413,53.2157,223.6387,110.772,249.3424,0.00032018,4.814e-05,0.0,0 STARLINK-4677,1 53600U 22104N   24082.60572338  .00004814  00000-0  32018-3 0  9997,2 53600  53.2157 223.6387 0001413 110.7720 249.3424 15.08857985 87354,6917.825,95.436,540.668,538.713,0.0
53600.0,STARLINK-4677,PAYLOAD,2024-03-22 16:07:37,15.08861709,0.0001582,53.2166,223.3414,112.7267,247.3892,0.00038186,5.798e-05,0.0,0 STARLINK-4677,1 53600U 22104N   24082.67196126  .00005798  00000-0  38186-3 0  9995,2 53600  53.2166 223.3414 0001582 112.7267 247.3892 15.08861709 87364,6917.814,95.436,540.773,538.585,0.0
53600.0,STARLINK-4677,PAYLOAD,2024-03-23 12:47:39,15.0883213,0.0001559,53.2166,219.4762,104.7078,255.4087,-0.00013355,-2.412e-05,0.0,0 STARLINK-4677,1 53600U 22104N   24083.53309688 -.00002412  00000-0 -13355-3 0  9993,2 53600  53.2166 219.4762 0001559 104.7078 255.4087 15.08832130 87217,6917.904,95.438,540.848,538.691,0.0
53600.0,STARLINK-4677,PAYLOAD,2024-03-23 15:58:25,15.0883357,0.0001687,53.217,218.8814,107.0271,253.0906,-7.3422e-05,-1.456e-05,0.0,0 STARLINK-4677,1 53600U 22104N   24083.66557613 -.00001456  00000-0 -73422-4 0  9999,2 53600  53.2170 218.8814 0001687 107.0271 253.0906 15.08833570 87512,6917.9,95.438,540.932,538.598,0.0
53600.0,STARLINK-4677,PAYLOAD,2024-03-24 12:38:26,15.0885184,0.0001661,53.2173,215.0165,105.9026,254.2149,0.00080015,0.00012473,0.0,0 STARLINK-4677,1 53600U 22104N   24084.52669650  .00012473  00000-0  80015-3 0  9994,2 53600  53.2173 215.0165 0001661 105.9026 254.2149 15.08851840 87365,6917.844,95.437,540.858,538.56,0.0
53600.0,STARLINK-4677,PAYLOAD,2024-03-24 14:13:49,15.08858834,0.0001785,53.2171,214.7181,108.4252,251.6934,0.0010054,0.00015757,0.0,0 STARLINK-4677,1 53600U 22104N   24084.59293504  .00015757  00000-0  10054-2 0  9995,2 53600  53.2171 214.7181 0001785 108.4252 251.6934 15.08858834 87658,6917.823,95.436,540.923,538.453,0.0
53600.0,STARLINK-4677,PAYLOAD,2024-03-24 15:49:12,15.08865246,0.000172,53.2174,214.4211,108.5207,251.5972,0.001248,0.00019643,0.0,0 STARLINK-4677,1 53600U 22104N   24084.65917371  .00019643  00000-0  12480-2 0  9990,2 53600  53.2174 214.4211 0001720 108.5207 251.5972 15.08865246 87669,6917.803,95.436,540.858,538.478,0.0
53600.0,STARLINK-4677,PAYLOAD,2024-03-25 12:29:13,15.08841341,0.0001645,53.217,210.5551,110.6196,249.4973,0.00030374,4.549e-05,0.0,0 STARLINK-4677,1 53600U 22104N   24085.52029728  .00004549  00000-0  30374-3 0  9999,2 53600  53.2170 210.5551 0001645 110.6196 249.4973 15.08841341 87517,6917.876,95.437,540.879,538.603,0.0
53600.0,STARLINK-4677,PAYLOAD,2024-03-25 17:15:23,15.08852213,0.0001595,53.2164,209.663,104.4855,255.6315,0.002934,0.00046732,0.0,0 STARLINK-4677,1 53600U 22104N   24085.71901949  .00046732  00000-0  29340-2 0  9994,2 53600  53.2164 209.6630 0001595 104.4855 255.6315 15.08852213 87546,6917.843,95.437,540.811,538.605,0.0
53600.0,STARLINK-4677,PAYLOAD,2024-03-26 12:20:01,15.08839012,0.0002137,53.216,206.0906,134.4362,225.6805,0.001086,0.00017038,0.0,0 STARLINK-4677,1 53600U 22104N   24086.51390323  .00017038  00000-0  10860-2 0  9995,2 53600  53.2160 206.0906 0002137 134.4362 225.6805 15.08839012 87664,6917.883,95.438,541.227,538.27,0.0
53600.0,STARLINK-4677,PAYLOAD,2024-03-26 13:55:24,15.08839068,0.0002119,53.2162,205.7936,139.032,221.0832,0.0009973,0.00015619,0.0,0 STARLINK-4677,1 53600U 22104N   24086.58014280  .00015619  00000-0  99730-3 0  9994,2 53600  53.2162 205.7936 0002119 139.0320 221.0832 15.08839068 87953,6917.883,95.438,541.214,538.282,0.0
53600.0,STARLINK-4677,PAYLOAD,2024-03-26 15:30:47,15.08844876,0.0001302,53.2157,205.4974,91.9258,268.1883,0.00090677,0.00014175,0.0,0 STARLINK-4677,1 53600U 22104N   24086.64638539  .00014175  00000-0  90677-3 0  9997,2 53600  53.2157 205.4974 0001302  91.9258 268.1883 15.08844876 87967,6917.865,95.437,540.631,538.83,0.0
